line1,line2,validFromUtcTime
1 00000U 00000E   26001.00000000  .00000000  00000-0  27772-4 0    01,2 00000  89.0018   0.3306 0010009 270.0047 270.1400 13.55304300    08,2026-01-01T00:00:00Z
1 00000U 00000E   26002.00000000  .00000000  00000-0  27772-4 0    02,2 00000  89.0015   0.2295 0010072 265.1051 111.1301 13.55280484    01,2026-01-02T00:00:00Z
